[{"OBJECT_NAME":"ION SCV-015","OBJECT_ID":"2023-185H","EPOCH":"2026-03-09T22:36:51.209568","MEAN_MOTION":15.3163624,"ECCENTRICITY":0.00109059,"INCLINATION":97.5772,"RA_OF_ASC_NODE":155.3582,"ARG_OF_PERICENTER":92.3805,"MEAN_ANOMALY":267.8685,"EPHEMERIS_TYPE":0,"CLASSIFICATION_TYPE":"U","NORAD_CAT_ID":58469,"ELEMENT_SET_NO":999,"REV_AT_EPOCH":12588,"BSTAR":0.00030895808,"MEAN_MOTION_DOT":9.376e-5,"MEAN_MOTION_DDOT":0},{"OBJECT_NAME":"STARLINK-35629","OBJECT_ID":"2025-237P","EPOCH":"2026-03-09T05:07:28.617024","MEAN_MOTION":15.30211335,"ECCENTRICITY":0.00013239,"INCLINATION":53.1591,"RA_OF_ASC_NODE":42.1174,"ARG_OF_PERICENTER":92.2864,"MEAN_ANOMALY":267.8288,"EPHEMERIS_TYPE":0,"CLASSIFICATION_TYPE":"U","NORAD_CAT_ID":66127,"ELEMENT_SET_NO":999,"REV_AT_EPOCH":2253,"BSTAR":0.0024749513,"MEAN_MOTION_DOT":0.00073697,"MEAN_MOTION_DDOT":0}]
